<?xml version="1.0" encoding="UTF-8"?>
<ndm xmlns:xsi="http://www.w3.org/2001/XMLSchema-instance" xsi:noNamespaceSchemaLocation="https://sanaregistry.org/r/ndmxml_unqualified/ndmxml-2.0.0-master-2.0.xsd">
<omm id="CCSDS_OMM_VERS" version="2.0">
<header><CREATION_DATE/><ORIGINATOR/></header><body><segment><metadata><OBJECT_NAME>IRIDIUM 63</OBJECT_NAME><OBJECT_ID>1998-021B</OBJECT_ID><CENTER_NAME>EARTH</CENTER_NAME><REF_FRAME>TEME</REF_FRAME><TIME_SYSTEM>UTC</TIME_SYSTEM><MEAN_ELEMENT_THEORY>SGP4</MEAN_ELEMENT_THEORY></metadata><data><meanElements><EPOCH>2025-12-29T13:13:36.132096</EPOCH><MEAN_MOTION>14.36750337</MEAN_MOTION><ECCENTRICITY>.00022408</ECCENTRICITY><INCLINATION>86.3982</INCLINATION><RA_OF_ASC_NODE>0.1582</RA_OF_ASC_NODE><ARG_OF_PERICENTER>83.7217</ARG_OF_PERICENTER><MEAN_ANOMALY>276.4236</MEAN_ANOMALY></meanElements><tleParameters><EPHEMERIS_TYPE>0</EPHEMERIS_TYPE><CLASSIFICATION_TYPE>U</CLASSIFICATION_TYPE><NORAD_CAT_ID>25286</NORAD_CAT_ID><ELEMENT_SET_NO>999</ELEMENT_SET_NO><REV_AT_EPOCH>45189</REV_AT_EPOCH><BSTAR>.1976488E-3</BSTAR><MEAN_MOTION_DOT>.602E-5</MEAN_MOTION_DOT><MEAN_MOTION_DDOT>0</MEAN_MOTION_DDOT></tleParameters></data></segment></body></omm>
<omm id="CCSDS_OMM_VERS" version="2.0">
<header><CREATION_DATE/><ORIGINATOR/></header><body><segment><metadata><OBJECT_NAME>IRIDIUM 69</OBJECT_NAME><OBJECT_ID>1998-026A</OBJECT_ID><CENTER_NAME>EARTH</CENTER_NAME><REF_FRAME>TEME</REF_FRAME><TIME_SYSTEM>UTC</TIME_SYSTEM><MEAN_ELEMENT_THEORY>SGP4</MEAN_ELEMENT_THEORY></metadata><data><meanElements><EPOCH>2025-12-29T14:04:18.503328</EPOCH><MEAN_MOTION>14.41232913</MEAN_MOTION><ECCENTRICITY>.00045984</ECCENTRICITY><INCLINATION>86.3968</INCLINATION><RA_OF_ASC_NODE>12.8145</RA_OF_ASC_NODE><ARG_OF_PERICENTER>94.9208</ARG_OF_PERICENTER><MEAN_ANOMALY>265.2517</MEAN_ANOMALY></meanElements><tleParameters><EPHEMERIS_TYPE>0</EPHEMERIS_TYPE><CLASSIFICATION_TYPE>U</CLASSIFICATION_TYPE><NORAD_CAT_ID>25319</NORAD_CAT_ID><ELEMENT_SET_NO>999</ELEMENT_SET_NO><REV_AT_EPOCH>45120</REV_AT_EPOCH><BSTAR>.18759022E-3</BSTAR><MEAN_MOTION_DOT>.625E-5</MEAN_MOTION_DOT><MEAN_MOTION_DDOT>0</MEAN_MOTION_DDOT></tleParameters></data></segment></body></omm>
<omm id="CCSDS_OMM_VERS" version="2.0">
<header><CREATION_DATE/><ORIGINATOR/></header><body><segment><metadata><OBJECT_NAME>IRIDIUM 71</OBJECT_NAME><OBJECT_ID>1998-026B</OBJECT_ID><CENTER_NAME>EARTH</CENTER_NAME><REF_FRAME>TEME</REF_FRAME><TIME_SYSTEM>UTC</TIME_SYSTEM><MEAN_ELEMENT_THEORY>SGP4</MEAN_ELEMENT_THEORY></metadata><data><meanElements><EPOCH>2025-12-29T10:23:39.801984</EPOCH><MEAN_MOTION>14.41329005</MEAN_MOTION><ECCENTRICITY>.0003469</ECCENTRICITY><INCLINATION>86.3971</INCLINATION><RA_OF_ASC_NODE>7.5507</RA_OF_ASC_NODE><ARG_OF_PERICENTER>126.0180</ARG_OF_PERICENTER><MEAN_ANOMALY>234.1342</MEAN_ANOMALY></meanElements><tleParameters><EPHEMERIS_TYPE>0</EPHEMERIS_TYPE><CLASSIFICATION_TYPE>U</CLASSIFICATION_TYPE><NORAD_CAT_ID>25320</NORAD_CAT_ID><ELEMENT_SET_NO>999</ELEMENT_SET_NO><REV_AT_EPOCH>45171</REV_AT_EPOCH><BSTAR>.1381848E-3</BSTAR><MEAN_MOTION_DOT>.467E-5</MEAN_MOTION_DOT><MEAN_MOTION_DDOT>0</MEAN_MOTION_DDOT></tleParameters></data></segment></body></omm>
<omm id="CCSDS_OMM_VERS" version="2.0">
<header><CREATION_DATE/><ORIGINATOR/></header><body><segment><metadata><OBJECT_NAME>IRIDIUM 73</OBJECT_NAME><OBJECT_ID>1998-032C</OBJECT_ID><CENTER_NAME>EARTH</CENTER_NAME><REF_FRAME>TEME</REF_FRAME><TIME_SYSTEM>UTC</TIME_SYSTEM><MEAN_ELEMENT_THEORY>SGP4</MEAN_ELEMENT_THEORY></metadata><data><meanElements><EPOCH>2025-12-29T09:17:43.842336</EPOCH><MEAN_MOTION>14.52014756</MEAN_MOTION><ECCENTRICITY>.00029312</ECCENTRICITY><INCLINATION>86.4419</INCLINATION><RA_OF_ASC_NODE>323.9135</RA_OF_ASC_NODE><ARG_OF_PERICENTER>79.4955</ARG_OF_PERICENTER><MEAN_ANOMALY>280.6580</MEAN_ANOMALY></meanElements><tleParameters><EPHEMERIS_TYPE>0</EPHEMERIS_TYPE><CLASSIFICATION_TYPE>U</CLASSIFICATION_TYPE><NORAD_CAT_ID>25344</NORAD_CAT_ID><ELEMENT_SET_NO>999</ELEMENT_SET_NO><REV_AT_EPOCH>45888</REV_AT_EPOCH><BSTAR>.25315265E-3</BSTAR><MEAN_MOTION_DOT>.1043E-4</MEAN_MOTION_DOT><MEAN_MOTION_DDOT>0</MEAN_MOTION_DDOT></tleParameters></data></segment></body></omm>
<omm id="CCSDS_OMM_VERS" version="2.0">
<header><CREATION_DATE/><ORIGINATOR/></header><body><segment><metadata><OBJECT_NAME>IRIDIUM 82</OBJECT_NAME><OBJECT_ID>1998-051A</OBJECT_ID><CENTER_NAME>EARTH</CENTER_NAME><REF_FRAME>TEME</REF_FRAME><TIME_SYSTEM>UTC</TIME_SYSTEM><MEAN_ELEMENT_THEORY>SGP4</MEAN_ELEMENT_THEORY></metadata><data><meanElements><EPOCH>2025-12-29T12:39:26.405280</EPOCH><MEAN_MOTION>15.48148731</MEAN_MOTION><ECCENTRICITY>.00564669</ECCENTRICITY><INCLINATION>86.3601</INCLINATION><RA_OF_ASC_NODE>12.6465</RA_OF_ASC_NODE><ARG_OF_PERICENTER>267.1156</ARG_OF_PERICENTER><MEAN_ANOMALY>92.3639</MEAN_ANOMALY></meanElements><tleParameters><EPHEMERIS_TYPE>0</EPHEMERIS_TYPE><CLASSIFICATION_TYPE>U</CLASSIFICATION_TYPE><NORAD_CAT_ID>25467</NORAD_CAT_ID><ELEMENT_SET_NO>999</ELEMENT_SET_NO><REV_AT_EPOCH>45399</REV_AT_EPOCH><BSTAR>.11293531E-2</BSTAR><MEAN_MOTION_DOT>.63581E-3</MEAN_MOTION_DOT><MEAN_MOTION_DDOT>0</MEAN_MOTION_DDOT></tleParameters></data></segment></body></omm>
</ndm>
