IRIDIUM 63              
1 25286U 98021B   25363.55111264  .00000602  00000+0  19765-3 0  9995
2 25286  86.3982   0.1582 0002240  83.7217 276.4236 14.36750337451899
IRIDIUM 69              
1 25319U 98026A   25363.58632527  .00000625  00000+0  18759-3 0  9997
2 25319  86.3968  12.8145 0004598  94.9208 265.2517 14.41232913451201
IRIDIUM 71              
1 25320U 98026B   25363.43309956  .00000467  00000+0  13818-3 0  9995
2 25320  86.3971   7.5507 0003469 126.0180 234.1342 14.41329005451718
IRIDIUM 73              
1 25344U 98032C   25363.38731299  .00001043  00000+0  25315-3 0  9997
2 25344  86.4419 323.9135 0002931  79.4955 280.6580 14.52014756458889
IRIDIUM 82              
1 25467U 98051A   25363.52738895  .00063581  00000+0  11294-2 0  9994
2 25467  86.3601  12.6465 0056466 267.1156  92.3639 15.48148731453993
